[{"OBJECT_NAME":"STARLINK-35559","OBJECT_ID":"2025-236K","EPOCH":"2026-03-09T12:52:33.363264","MEAN_MOTION":15.30196044,"ECCENTRICITY":0.00013487,"INCLINATION":53.1589,"RA_OF_ASC_NODE":104.4063,"ARG_OF_PERICENTER":88.8812,"MEAN_ANOMALY":271.2343,"EPHEMERIS_TYPE":0,"CLASSIFICATION_TYPE":"U","NORAD_CAT_ID":66095,"ELEMENT_SET_NO":999,"REV_AT_EPOCH":2292,"BSTAR":0.00089097535,"MEAN_MOTION_DOT":0.00026119,"MEAN_MOTION_DDOT":0},{"OBJECT_NAME":"COSMOS 1782","OBJECT_ID":"1986-074A","EPOCH":"2026-03-09T22:40:22.374624","MEAN_MOTION":15.33314157,"ECCENTRICITY":0.00054418,"INCLINATION":82.5242,"RA_OF_ASC_NODE":238.1482,"ARG_OF_PERICENTER":197.7479,"MEAN_ANOMALY":162.3574,"EPHEMERIS_TYPE":0,"CLASSIFICATION_TYPE":"U","NORAD_CAT_ID":16986,"ELEMENT_SET_NO":999,"REV_AT_EPOCH":13134,"BSTAR":0.00042191031,"MEAN_MOTION_DOT":0.00013623,"MEAN_MOTION_DDOT":0}]
